CCSDS_OMM_VERS = 2.0
CREATION_DATE  = 
ORIGINATOR     = 

OBJECT_NAME    = COSMOS 2058
OBJECT_ID      = 1990-010A
CENTER_NAME    = EARTH
REF_FRAME      = TEME
TIME_SYSTEM    = UTC
MEAN_ELEMENT_THEORY = SGP/SGP4

EPOCH          = 2026-03-19T23:26:03.887232
MEAN_MOTION    = 15.11407936
ECCENTRICITY   = .0007981
INCLINATION    = 82.4675
RA_OF_ASC_NODE = 37.2908
ARG_OF_PERICENTER = 307.7366
MEAN_ANOMALY   = 52.3140

EPHEMERIS_TYPE = 0
CLASSIFICATION_TYPE = U
NORAD_CAT_ID   = 20465
ELEMENT_SET_NO = 999
REV_AT_EPOCH   = 94379
BSTAR          = .22176E-3
MEAN_MOTION_DOT = .3775E-4
MEAN_MOTION_DDOT = 0

CCSDS_OMM_VERS = 2.0
CREATION_DATE  = 
ORIGINATOR     = 

OBJECT_NAME    = SL-14 R/B
OBJECT_ID      = 1990-010B
CENTER_NAME    = EARTH
REF_FRAME      = TEME
TIME_SYSTEM    = UTC
MEAN_ELEMENT_THEORY = SGP/SGP4

EPOCH          = 2026-03-20T00:08:55.389696
MEAN_MOTION    = 14.83577858
ECCENTRICITY   = .0018329
INCLINATION    = 82.4987
RA_OF_ASC_NODE = 257.6950
ARG_OF_PERICENTER = 265.6455
MEAN_ANOMALY   = 94.2665

EPHEMERIS_TYPE = 0
CLASSIFICATION_TYPE = U
NORAD_CAT_ID   = 20466
ELEMENT_SET_NO = 999
REV_AT_EPOCH   = 93001
BSTAR          = .45622E-4
MEAN_MOTION_DOT = .4E-5
MEAN_MOTION_DDOT = 0

CCSDS_OMM_VERS = 2.0
CREATION_DATE  = 
ORIGINATOR     = 

OBJECT_NAME    = SL-14 R/B
OBJECT_ID      = 1990-018B
CENTER_NAME    = EARTH
REF_FRAME      = TEME
TIME_SYSTEM    = UTC
MEAN_ELEMENT_THEORY = SGP/SGP4

EPOCH          = 2026-03-19T19:57:13.776480
MEAN_MOTION    = 14.82155178
ECCENTRICITY   = .0017456
INCLINATION    = 82.5221
RA_OF_ASC_NODE = 213.6111
ARG_OF_PERICENTER = 61.3004
MEAN_ANOMALY   = 298.9962

EPHEMERIS_TYPE = 0
CLASSIFICATION_TYPE = U
NORAD_CAT_ID   = 20511
ELEMENT_SET_NO = 999
REV_AT_EPOCH   = 92408
BSTAR          = .50160676E-4
MEAN_MOTION_DOT = .424E-5
MEAN_MOTION_DDOT = 0

CCSDS_OMM_VERS = 2.0
CREATION_DATE  = 
ORIGINATOR     = 

OBJECT_NAME    = HST
OBJECT_ID      = 1990-037B
CENTER_NAME    = EARTH
REF_FRAME      = TEME
TIME_SYSTEM    = UTC
MEAN_ELEMENT_THEORY = SGP/SGP4

EPOCH          = 2026-03-19T23:46:35.087232
MEAN_MOTION    = 15.29637314
ECCENTRICITY   = .0001538
INCLINATION    = 28.4725
RA_OF_ASC_NODE = 329.7223
ARG_OF_PERICENTER = 237.6208
MEAN_ANOMALY   = 122.4239

EPHEMERIS_TYPE = 0
CLASSIFICATION_TYPE = U
NORAD_CAT_ID   = 20580
ELEMENT_SET_NO = 999
REV_AT_EPOCH   = 77489
BSTAR          = .22019E-3
MEAN_MOTION_DOT = .6738E-4
MEAN_MOTION_DDOT = 0

CCSDS_OMM_VERS = 2.0
CREATION_DATE  = 
ORIGINATOR     = 

OBJECT_NAME    = SL-16 R/B
OBJECT_ID      = 1990-046B
CENTER_NAME    = EARTH
REF_FRAME      = TEME
TIME_SYSTEM    = UTC
MEAN_ELEMENT_THEORY = SGP/SGP4

EPOCH          = 2026-03-20T00:26:12.988896
MEAN_MOTION    = 14.15012014
ECCENTRICITY   = .0016207
INCLINATION    = 70.9954
RA_OF_ASC_NODE = 276.2208
ARG_OF_PERICENTER = 285.9371
MEAN_ANOMALY   = 73.9966

EPHEMERIS_TYPE = 0
CLASSIFICATION_TYPE = U
NORAD_CAT_ID   = 20625
ELEMENT_SET_NO = 999
REV_AT_EPOCH   = 84985
BSTAR          = .61785E-4
MEAN_MOTION_DOT = .72E-6
MEAN_MOTION_DDOT = 0

CCSDS_OMM_VERS = 2.0
CREATION_DATE  = 
ORIGINATOR     = 

OBJECT_NAME    = COSMOS 2084
OBJECT_ID      = 1990-055A
CENTER_NAME    = EARTH
REF_FRAME      = TEME
TIME_SYSTEM    = UTC
MEAN_ELEMENT_THEORY = SGP/SGP4

EPOCH          = 2026-03-20T00:23:01.933440
MEAN_MOTION    = 15.05704406
ECCENTRICITY   = .0015502
INCLINATION    = 62.7890
RA_OF_ASC_NODE = 300.3574
ARG_OF_PERICENTER = 192.8680
MEAN_ANOMALY   = 167.2027

EPHEMERIS_TYPE = 0
CLASSIFICATION_TYPE = U
NORAD_CAT_ID   = 20663
ELEMENT_SET_NO = 999
REV_AT_EPOCH   = 93787
BSTAR          = .14152E-3
MEAN_MOTION_DOT = .1858E-4
MEAN_MOTION_DDOT = 0

CCSDS_OMM_VERS = 2.0
CREATION_DATE  = 
ORIGINATOR     = 

OBJECT_NAME    = SL-6 R/B(2)
OBJECT_ID      = 1990-055D
CENTER_NAME    = EARTH
REF_FRAME      = TEME
TIME_SYSTEM    = UTC
MEAN_ELEMENT_THEORY = SGP/SGP4

EPOCH          = 2026-03-19T19:31:06.838176
MEAN_MOTION    = 15.03641990
ECCENTRICITY   = .00264532
INCLINATION    = 62.7827
RA_OF_ASC_NODE = 219.4212
ARG_OF_PERICENTER = 349.4230
MEAN_ANOMALY   = 10.6310

EPHEMERIS_TYPE = 0
CLASSIFICATION_TYPE = U
NORAD_CAT_ID   = 20666
ELEMENT_SET_NO = 999
REV_AT_EPOCH   = 93971
BSTAR          = .14531485E-3
MEAN_MOTION_DOT = .181E-4
MEAN_MOTION_DDOT = 0

CCSDS_OMM_VERS = 2.0
CREATION_DATE  = 
ORIGINATOR     = 

OBJECT_NAME    = SL-8 R/B
OBJECT_ID      = 1990-078B
CENTER_NAME    = EARTH
REF_FRAME      = TEME
TIME_SYSTEM    = UTC
MEAN_ELEMENT_THEORY = SGP/SGP4

EPOCH          = 2026-03-20T04:35:27.989952
MEAN_MOTION    = 14.89374972
ECCENTRICITY   = .0360091
INCLINATION    = 82.9006
RA_OF_ASC_NODE = 241.8616
ARG_OF_PERICENTER = 338.6324
MEAN_ANOMALY   = 20.0170

EPHEMERIS_TYPE = 0
CLASSIFICATION_TYPE = U
NORAD_CAT_ID   = 20775
ELEMENT_SET_NO = 999
REV_AT_EPOCH   = 81086
BSTAR          = .30994E-3
MEAN_MOTION_DOT = .10495E-3
MEAN_MOTION_DDOT = 0

CCSDS_OMM_VERS = 2.0
CREATION_DATE  = 
ORIGINATOR     = 

OBJECT_NAME    = SL-8 R/B
OBJECT_ID      = 1991-006B
CENTER_NAME    = EARTH
REF_FRAME      = TEME
TIME_SYSTEM    = UTC
MEAN_ELEMENT_THEORY = SGP/SGP4

EPOCH          = 2026-03-20T05:20:45.295008
MEAN_MOTION    = 13.77495612
ECCENTRICITY   = .0022427
INCLINATION    = 82.9457
RA_OF_ASC_NODE = 162.2155
ARG_OF_PERICENTER = 9.4874
MEAN_ANOMALY   = 19.2755

EPHEMERIS_TYPE = 0
CLASSIFICATION_TYPE = U
NORAD_CAT_ID   = 21088
ELEMENT_SET_NO = 999
REV_AT_EPOCH   = 76552
BSTAR          = .69464E-4
MEAN_MOTION_DOT = .84E-6
MEAN_MOTION_DDOT = 0

CCSDS_OMM_VERS = 2.0
CREATION_DATE  = 
ORIGINATOR     = 

OBJECT_NAME    = OKEAN-3
OBJECT_ID      = 1991-039A
CENTER_NAME    = EARTH
REF_FRAME      = TEME
TIME_SYSTEM    = UTC
MEAN_ELEMENT_THEORY = SGP/SGP4

EPOCH          = 2026-03-20T04:26:27.144960
MEAN_MOTION    = 15.04870461
ECCENTRICITY   = .0012859
INCLINATION    = 82.5188
RA_OF_ASC_NODE = 326.6770
ARG_OF_PERICENTER = 297.8178
MEAN_ANOMALY   = 62.1744

EPHEMERIS_TYPE = 0
CLASSIFICATION_TYPE = U
NORAD_CAT_ID   = 21397
ELEMENT_SET_NO = 999
REV_AT_EPOCH   = 86661
BSTAR          = .11452E-3
MEAN_MOTION_DOT = .1649E-4
MEAN_MOTION_DDOT = 0

CCSDS_OMM_VERS = 2.0
CREATION_DATE  = 
ORIGINATOR     = 

OBJECT_NAME    = COSMOS 2151
OBJECT_ID      = 1991-042A
CENTER_NAME    = EARTH
REF_FRAME      = TEME
TIME_SYSTEM    = UTC
MEAN_ELEMENT_THEORY = SGP/SGP4

EPOCH          = 2026-03-20T03:44:10.423680
MEAN_MOTION    = 15.00145991
ECCENTRICITY   = .0013284
INCLINATION    = 82.4934
RA_OF_ASC_NODE = 73.5770
ARG_OF_PERICENTER = 31.4596
MEAN_ANOMALY   = 328.7420

EPHEMERIS_TYPE = 0
CLASSIFICATION_TYPE = U
NORAD_CAT_ID   = 21422
ELEMENT_SET_NO = 999
REV_AT_EPOCH   = 86476
BSTAR          = .1263E-3
MEAN_MOTION_DOT = .1605E-4
MEAN_MOTION_DDOT = 0

CCSDS_OMM_VERS = 2.0
CREATION_DATE  = 
ORIGINATOR     = 

OBJECT_NAME    = SL-14 R/B
OBJECT_ID      = 1991-042B
CENTER_NAME    = EARTH
REF_FRAME      = TEME
TIME_SYSTEM    = UTC
MEAN_ELEMENT_THEORY = SGP/SGP4

EPOCH          = 2026-03-19T21:16:40.473120
MEAN_MOTION    = 14.81839825
ECCENTRICITY   = .0016449
INCLINATION    = 82.4941
RA_OF_ASC_NODE = 210.6213
ARG_OF_PERICENTER = 203.1124
MEAN_ANOMALY   = 156.9352

EPHEMERIS_TYPE = 0
CLASSIFICATION_TYPE = U
NORAD_CAT_ID   = 21423
ELEMENT_SET_NO = 999
REV_AT_EPOCH   = 85458
BSTAR          = .51488E-4
MEAN_MOTION_DOT = .431E-5
MEAN_MOTION_DDOT = 0

